{
  "type": "FeatureCollection",
  "features": [
    {
      "type": "Feature",
      "properties": {
        "norad_id": 31087,
        "name": "FENGYUN 1C DEB",
        "group": "fengyun-1c-debris",
        "lat": -60.219125518410955,
        "lon": -177.27591503060833,
        "alt_km": 583.1399615511837,
        "timestamp": "2025-12-22T22:44:21.255993+00:00",
        "meta_object_name": "FENGYUN 1C DEB",
        "meta_object_id": "1999-025BGH",
        "meta_epoch": "2025-12-22T12:29:21.539616",
        "meta_mean_motion": 14.60394241,
        "meta_eccentricity": 0.01716403,
        "meta_inclination": 98.1012,
        "meta_ra_of_asc_node": 16.7188,
        "meta_arg_of_pericenter": 260.0916,
        "meta_mean_anomaly": 257.6721,
        "meta_ephemeris_type": 0,
        "meta_classification_type": "U",
        "meta_norad_cat_id": 31087,
        "meta_element_set_no": 999,
        "meta_rev_at_epoch": 98912,
        "meta_bstar": 0.00080101067,
        "meta_mean_motion_dot": 4.718e-05,
        "meta_mean_motion_ddot": 0,
        "tle_line1": "1 31087U 99025BGH 25356.52038819  .00004718  00000+0  80101-3 0  9993",
        "tle_line2": "2 31087  98.1012  16.7188 0171640 260.0916 257.6721 14.60394241989129"
      },
      "geometry": {
        "type": "Point",
        "coordinates": [
          -177.27591503060833,
          -60.219125518410955
        ]
      }
    },
    {
      "type": "Feature",
      "properties": {
        "norad_id": 31088,
        "name": "FENGYUN 1C DEB",
        "group": "fengyun-1c-debris",
        "lat": 64.96485738712381,
        "lon": 37.126638928007,
        "alt_km": 772.9454047298295,
        "timestamp": "2025-12-22T22:44:21.256004+00:00",
        "meta_object_name": "FENGYUN 1C DEB",
        "meta_object_id": "1999-025BGJ",
        "meta_epoch": "2025-12-20T03:21:12.353184",
        "meta_mean_motion": 14.28750906,
        "meta_eccentricity": 0.00280606,
        "meta_inclination": 99.4114,
        "meta_ra_of_asc_node": 54.9006,
        "meta_arg_of_pericenter": 39.8245,
        "meta_mean_anomaly": 353.0532,
        "meta_ephemeris_type": 0,
        "meta_classification_type": "U",
        "meta_norad_cat_id": 31088,
        "meta_element_set_no": 999,
        "meta_rev_at_epoch": 96655,
        "meta_bstar": 0.0010684621,
        "meta_mean_motion_dot": 2.651e-05,
        "meta_mean_motion_ddot": 0,
        "tle_line1": "1 31088U 99025BGJ 25354.13972631  .00002651  00000+0  10685-2 0  9991",
        "tle_line2": "2 31088  99.4114  54.9006 0028060  39.8245 353.0532 14.28750906966555"
      },
      "geometry": {
        "type": "Point",
        "coordinates": [
          37.126638928007,
          64.96485738712381
        ]
      }
    },
    {
      "type": "Feature",
      "properties": {
        "norad_id": 31089,
        "name": "FENGYUN 1C DEB",
        "group": "fengyun-1c-debris",
        "lat": 62.16055564312113,
        "lon": -24.039681367360302,
        "alt_km": 868.0612777364913,
        "timestamp": "2025-12-22T22:44:21.256014+00:00",
        "meta_object_name": "FENGYUN 1C DEB",
        "meta_object_id": "1999-025BGK",
        "meta_epoch": "2025-12-21T20:57:55.403424",
        "meta_mean_motion": 13.88343099,
        "meta_eccentricity": 0.02062769,
        "meta_inclination": 98.9502,
        "meta_ra_of_asc_node": 137.5678,
        "meta_arg_of_pericenter": 186.8776,
        "meta_mean_anomaly": 327.1864,
        "meta_ephemeris_type": 0,
        "meta_classification_type": "U",
        "meta_norad_cat_id": 31089,
        "meta_element_set_no": 999,
        "meta_rev_at_epoch": 68186,
        "meta_bstar": 0.00069358261,
        "meta_mean_motion_dot": 9.42e-06,
        "meta_mean_motion_ddot": 0,
        "tle_line1": "1 31089U 99025BGK 25355.87355791  .00000942  00000+0  69358-3 0  9999",
        "tle_line2": "2 31089  98.9502 137.5678 0206276 186.8776 327.1864 13.88343099681867"
      },
      "geometry": {
        "type": "Point",
        "coordinates": [
          -24.039681367360302,
          62.16055564312113
        ]
      }
    },
    {
      "type": "Feature",
      "properties": {
        "norad_id": 31090,
        "name": "FENGYUN 1C DEB",
        "group": "fengyun-1c-debris",
        "lat": 41.09356015768846,
        "lon": -68.88963202363387,
        "alt_km": 431.2402028677352,
        "timestamp": "2025-12-22T22:44:21.256025+00:00",
        "meta_object_name": "FENGYUN 1C DEB",
        "meta_object_id": "1999-025BGL",
        "meta_epoch": "2025-12-21T13:16:32.539296",
        "meta_mean_motion": 15.34304432,
        "meta_eccentricity": 0.0054242,
        "meta_inclination": 98.984,
        "meta_ra_of_asc_node": 101.4841,
        "meta_arg_of_pericenter": 102.0738,
        "meta_mean_anomaly": 258.6586,
        "meta_ephemeris_type": 0,
        "meta_classification_type": "U",
        "meta_norad_cat_id": 31090,
        "meta_element_set_no": 999,
        "meta_rev_at_epoch": 973,
        "meta_bstar": 0.0014098,
        "meta_mean_motion_dot": 0.00049266,
        "meta_mean_motion_ddot": 0,
        "tle_line1": "1 31090U 99025BGL 25355.55315439  .00049266  00000+0  14098-2 0  9993",
        "tle_line2": "2 31090  98.9840 101.4841 0054242 102.0738 258.6586 15.34304432  9738"
      },
      "geometry": {
        "type": "Point",
        "coordinates": [
          -68.88963202363387,
          41.09356015768846
        ]
      }
    },
    {
      "type": "Feature",
      "properties": {
        "norad_id": 31091,
        "name": "FENGYUN 1C DEB",
        "group": "fengyun-1c-debris",
        "lat": -7.088142861825998,
        "lon": 152.17363448964764,
        "alt_km": 1150.3531727295676,
        "timestamp": "2025-12-22T22:44:21.256035+00:00",
        "meta_object_name": "FENGYUN 1C DEB",
        "meta_object_id": "1999-025BGM",
        "meta_epoch": "2025-12-21T15:38:43.182816",
        "meta_mean_motion": 13.54157583,
        "meta_eccentricity": 0.0290311,
        "meta_inclination": 99.2257,
        "meta_ra_of_asc_node": 332.1212,
        "meta_arg_of_pericenter": 306.4063,
        "meta_mean_anomaly": 51.0619,
        "meta_ephemeris_type": 0,
        "meta_classification_type": "U",
        "meta_norad_cat_id": 31091,
        "meta_element_set_no": 999,
        "meta_rev_at_epoch": 61760,
        "meta_bstar": 0.00058305332,
        "meta_mean_motion_dot": 4.75e-06,
        "meta_mean_motion_ddot": 0,
        "tle_line1": "1 31091U 99025BGM 25355.65188869  .00000475  00000+0  58305-3 0  9999",
        "tle_line2": "2 31091  99.2257 332.1212 0290311 306.4063  51.0619 13.54157583617606"
      },
      "geometry": {
        "type": "Point",
        "coordinates": [
          152.17363448964764,
          -7.088142861825998
        ]
      }
    },
    {
      "type": "Feature",
      "properties": {
        "norad_id": 31092,
        "name": "FENGYUN 1C DEB",
        "group": "fengyun-1c-debris",
        "lat": -79.14668282634439,
        "lon": 175.8981955059138,
        "alt_km": 1325.4901768246018,
        "timestamp": "2025-12-22T22:44:21.256045+00:00",
        "meta_object_name": "FENGYUN 1C DEB",
        "meta_object_id": "1999-025BGN",
        "meta_epoch": "2025-12-21T18:39:08.339040",
        "meta_mean_motion": 13.46549924,
        "meta_eccentricity": 0.03272724,
        "meta_inclination": 99.7204,
        "meta_ra_of_asc_node": 111.3813,
        "meta_arg_of_pericenter": 114.5013,
        "meta_mean_anomaly": 249.0613,
        "meta_ephemeris_type": 0,
        "meta_classification_type": "U",
        "meta_norad_cat_id": 31092,
        "meta_element_set_no": 999,
        "meta_rev_at_epoch": 92003,
        "meta_bstar": 0.0010558977,
        "meta_mean_motion_dot": 8.4e-06,
        "meta_mean_motion_ddot": 0,
        "tle_line1": "1 31092U 99025BGN 25355.77717985  .00000840  00000+0  10559-2 0  9994",
        "tle_line2": "2 31092  99.7204 111.3813 0327272 114.5013 249.0613 13.46549924920030"
      },
      "geometry": {
        "type": "Point",
        "coordinates": [
          175.8981955059138,
          -79.14668282634439
        ]
      }
    },
    {
      "type": "Feature",
      "properties": {
        "norad_id": 31093,
        "name": "FENGYUN 1C DEB",
        "group": "fengyun-1c-debris",
        "lat": -61.03177021395394,
        "lon": -0.8179102385970392,
        "alt_km": 862.1625211254495,
        "timestamp": "2025-12-22T22:44:21.256056+00:00",
        "meta_object_name": "FENGYUN 1C DEB",
        "meta_object_id": "1999-025BGP",
        "meta_epoch": "2025-12-20T19:08:05.890560",
        "meta_mean_motion": 13.80639482,
        "meta_eccentricity": 0.02083586,
        "meta_inclination": 98.5945,
        "meta_ra_of_asc_node": 193.0786,
        "meta_arg_of_pericenter": 201.2976,
        "meta_mean_anomaly": 157.9411,
        "meta_ephemeris_type": 0,
        "meta_classification_type": "U",
        "meta_norad_cat_id": 31093,
        "meta_element_set_no": 999,
        "meta_rev_at_epoch": 94618,
        "meta_bstar": 0.00028681115,
        "meta_mean_motion_dot": 3.16e-06,
        "meta_mean_motion_ddot": 0,
        "tle_line1": "1 31093U 99025BGP 25354.79729040  .00000316  00000+0  28681-3 0  9995",
        "tle_line2": "2 31093  98.5945 193.0786 0208358 201.2976 157.9411 13.80639482946185"
      },
      "geometry": {
        "type": "Point",
        "coordinates": [
          -0.8179102385970392,
          -61.03177021395394
        ]
      }
    }
  ]
}